CORVUS BC2              
1 42846U 17042X   18133.79739340  .00000257  00000-0  30789-4 0  9991
2 42846  97.6003  37.9069 0008576 318.7726  41.2845 14.91804607 45244
CORVUS BC1              
1 42847U 17042Y   18134.71631991  .00000040  00000-0  92629-5 0  9990
2 42847  97.6001  38.8373 0008146 315.2115  44.8446 14.91904120 45379
SILU-1 (SILKROAD 1)     
1 42903U 17021F   18134.59285326  .00026995  00000-0  21756-3 0  9991
2 42903  42.7774 171.5047 0010486  60.2148  76.8353 15.70275437 44647
MIRATA                  
1 43015U 17073C   18134.17369581  .00002330  00000-0  18832-3 0  9991
2 43015  97.7035  66.6218 0259292  22.5952 338.6433 14.78045431 26116
ASTERIA                 
1 43020U 98067NH  18134.55391231  .00010399  00000-0  13916-3 0  9990
2 43020  51.6405 183.2153 0003276  44.1983 315.9270 15.58639337 27244
DELLINGR (RBLE)         
1 43021U 98067NJ  18134.69795317  .00005643  00000-0  82981-4 0  9994
2 43021  51.6385 183.4121 0002974  39.8104 320.3106 15.57126476 27252
TECHEDSAT 6             
1 43026U 98067NK  18135.04917276  .24108771  12366-4  25107-2 0  9998
2 43026  51.6059 164.5237 0004943 311.1143  50.3672 16.36895032 27437
OSIRIS-3U               
1 43027U 98067NL  18134.33927537  .00026888  00000-0  29899-3 0  9994
2 43027  51.6368 181.7596 0004947  17.7866 342.3301 15.62667980 27121
AEROCUBE 7B             
1 43042U 17071F   18134.21887285  .00003655  00000-0  10435-3 0  9992
2 43042  51.6385 206.9749 0005375 137.8160 222.3239 15.38669651 24375
AEROCUBE 7C             
1 43043U 17071G   18134.73844113  .00003314  00000-0  95589-4 0  9999
2 43043  51.6386 204.4477 0005344 141.3422 218.7945 15.38664564 24422
CHEFSAT                 
1 43044U 17071H   18134.44061214  .00004681  00000-0  12757-3 0  9994
2 43044  51.6393 205.4716 0005214 139.3865 220.7509 15.39442141 24382
ASGARDIA 1              
1 43049U 17071N   18134.46236870  .00003451  00000-0  98681-4 0  9998
2 43049  51.6390 205.6091 0002665 155.0209 205.0904 15.38801031 24376
ISARA                   
1 43050U 17071P   18134.43970282  .00004142  00000-0  11453-3 0  9998
2 43050  51.6389 205.4656 0002503 151.1832 208.9290 15.39304211 24370
FAUNA                   
1 43052U 17071R   18134.45365477  .00003200  00000-0  91881-4 0  9994
2 43052  51.6391 205.5572 0002622 150.9151 209.1979 15.38922577 24373
CORVUS BC3              
1 43118U 18004H   18133.76226103  .00000965  00000-0  45155-4 0  9997
2 43118  97.5358 196.2795 0009850 207.4730 152.5987 15.22186301 18476
MICROMAS-2A             
1 43131U 18004W   18133.86558385  .00002241  00000-0  99256-4 0  9993
2 43131  97.5365 196.4571 0009047 209.1862 150.8870 15.22673986 18490
GOMX4-B                 
1 43196U 18015E   18133.92494155  .00000542  00000-0  25565-4 0  9991
2 43196  97.3407 263.5752 0017578 278.6514  81.2723 15.23529945 15314
GOMX4-A                 
1 43197U 18015F   18134.73196558  .00000741  00000-0  33783-4 0  9990
2 43197  97.3410 264.3643 0017695 277.5224 188.1908 15.23624997 15442
UBAKUSAT                
1 43466U 98067NP  18134.59000858  .00011351  00000-0  17317-3 0  9998
2 43466  51.6395 186.1759 0001262  15.5635 106.8982 15.54959521   478
1KUNS-PF                
1 43467U 98067NQ  18134.18755358  .00009475  00000-0  14541-3 0  9996
2 43467  51.6404 188.1858 0003095  12.4524  16.4463 15.55026936   411
IRAZU                   
1 43468U 98067NR  18133.60409044  .00013387  00000-0  20278-3 0  9992
2 43468  51.6381 191.0948 0001437   7.9408 352.1632 15.54979127100302
